1 53931U 22119AX  22282.83334491 -.00067088  00000-0 -47588-3 0  9993
2 53931  53.2179 179.3729 0001267  63.1721 164.3070 15.73274422  2778